OBJECT_NAME,OBJECT_ID,EPOCH,MEAN_MOTION,ECCENTRICITY,INCLINATION,RA_OF_ASC_NODE,ARG_OF_PERICENTER,MEAN_ANOMALY,EPHEMERIS_TYPE,CLASSIFICATION_TYPE,NORAD_CAT_ID,ELEMENT_SET_NO,REV_AT_EPOCH,BSTAR,MEAN_MOTION_DOT,MEAN_MOTION_DDOT
STARLINK-11466 [DTC],2024-231C,2026-06-10T07:03:43.574112,15.69737621,.00010576,53.1581,4.9421,65.0615,295.0513,0,U,62220,999,8795,.93077262E-3,.113862E-2,0
STARLINK-11468 [DTC],2024-231D,2026-06-09T20:36:04.138272,15.69725423,.0000962,53.1569,7.2014,96.1129,263.9998,0,U,62221,999,8788,.1332E-2,.164121E-2,0
STARLINK-11488 [DTC],2024-231E,2026-06-10T06:56:39.674112,15.69758977,.0001101,53.1577,4.9073,79.1533,280.9609,0,U,62222,999,8795,.17594E-2,.218723E-2,0
STARLINK-11483 [DTC],2024-231F,2026-06-10T01:32:09.400416,15.69790916,.00010462,53.1571,5.6214,121.8394,238.2726,0,U,62223,999,8792,.14545087E-2,.180103E-2,0
STARLINK-11492 [DTC],2024-231G,2026-06-09T20:29:00.419712,15.69731594,.00006786,53.1565,7.1800,59.2575,300.8510,0,U,62224,999,8788,.11236294E-2,.137946E-2,0
STARLINK-11471 [DTC],2024-231H,2026-06-10T04:42:35.852256,15.69738631,.0001071,53.1575,5.0375,65.0700,295.0429,0,U,62225,999,8794,.97805E-3,.119767E-2,0
STARLINK-11475 [DTC],2024-231J,2026-06-10T06:21:20.469600,15.69749323,.0000845,53.1567,4.7414,74.4277,285.6834,0,U,62226,999,8795,.13439E-2,.165783E-2,0
STARLINK-11469 [DTC],2024-231K,2026-06-10T06:35:28.140864,15.69751662,.0001104,53.1575,4.8060,77.6772,282.4370,0,U,62227,999,8795,.10205E-2,.125142E-2,0
STARLINK-11476 [DTC],2024-231L,2026-06-09T20:50:02.884416,15.69743833,.0000736,53.1571,6.5273,78.2662,281.8438,0,U,62228,999,8790,.17721E-2,.2202E-2,0
STARLINK-11485 [DTC],2024-231M,2026-06-10T06:28:24.354912,15.69761368,.0000666,53.1575,4.7751,71.7654,288.3437,0,U,62229,999,8795,.10852E-2,.133303E-2,0
STARLINK-11481 [DTC],2024-231N,2026-06-09T20:43:07.959648,15.69721671,.0000802,53.1570,7.2281,53.1118,306.9973,0,U,62230,999,8788,.12104E-2,.148784E-2,0
STARLINK-32650,2024-231P,2026-06-10T06:52:57.720288,15.31719930,.00013525,53.1591,149.6485,103.6955,256.4197,0,U,62231,999,8594,.36289512E-3,.10919E-3,0
STARLINK-32636,2024-231Q,2026-06-10T06:02:27.040704,15.30203513,.0001902,53.1579,149.4449,114.1720,245.9480,0,U,62232,999,8594,.14095E-2,.41627E-3,0
STARLINK-32643,2024-231R,2026-06-10T14:58:23.472192,15.31732558,.00011052,53.1574,134.7114,100.0009,260.1117,0,U,62233,999,8617,.53962444E-3,.16434E-3,0
STARLINK-32652,2024-231S,2026-06-10T06:35:50.806176,15.30202268,.00013733,53.1583,149.5735,83.2535,276.8622,0,U,62234,999,8593,.25988856E-3,.7346E-4,0
STARLINK-32631,2024-231T,2026-06-10T05:07:44.378112,15.31712782,.0001039,53.1584,136.4201,83.2235,276.8884,0,U,62235,999,8611,.58385E-3,.17803E-3,0
STARLINK-32641,2024-231U,2026-06-10T05:05:33.037152,15.30214258,.00010007,53.1570,137.1110,108.7551,251.3558,0,U,62236,999,8610,.53636033E-3,.15567E-3,0
QIANFAN-37,2024-232B,2026-06-10T14:18:21.399264,13.51007825,.00015402,89.0078,23.2469,69.4444,290.6872,0,U,62238,999,12345,.1109156E-3,.84E-6,0
QIANFAN-38,2024-232C,2026-06-10T14:53:52.655712,13.51004993,.00159946,89.0084,23.1725,41.0638,319.1714,0,U,62239,999,12351,.36649833E-4,.36E-6,0
QIANFAN-39,2024-232D,2026-06-10T14:55:25.952160,14.25522842,.0014917,89.0065,16.8147,201.9646,158.0910,0,U,62240,999,12701,.10387082E-3,.26E-5,0
QIANFAN-40,2024-232E,2026-06-10T13:54:37.460736,13.51012683,.00152133,89.0112,22.8114,48.6645,311.5813,0,U,62241,999,12387,.11450755E-3,.86E-6,0
QIANFAN-41,2024-232F,2026-06-10T14:06:32.934816,13.51008966,.00153044,89.0083,23.1241,37.7941,322.4282,0,U,62242,999,12353,.11659435E-3,.87E-6,0
QIANFAN-42,2024-232G,2026-06-10T14:15:14.654304,14.24612052,.00135466,89.0063,16.8918,208.7124,151.3324,0,U,62243,999,12697,.97689195E-4,.241E-5,0
QIANFAN-43,2024-232H,2026-06-10T14:00:36.736128,13.51008738,.00169703,89.0087,23.1977,42.0255,318.2194,0,U,62244,999,9214,.10642748E-3,.81E-6,0
QIANFAN-44,2024-232J,2026-06-10T15:29:28.349664,13.51010766,.00151059,89.0085,22.9994,39.8358,320.3900,0,U,62245,999,12362,.12367682E-3,.92E-6,0
QIANFAN-45,2024-232K,2026-06-10T14:42:07.027776,13.51008330,.00157636,89.0089,23.1556,39.3116,320.9176,0,U,62246,999,12354,.11991904E-3,.9E-6,0
QIANFAN-46,2024-232L,2026-06-10T13:30:59.922720,13.51009070,.001595,89.0085,23.2222,44.4529,315.7899,0,U,62247,999,12349,.10479806E-3,.8E-6,0
QIANFAN-47,2024-232M,2026-06-10T15:23:33.796896,13.51007781,.00163511,89.0081,23.1401,43.3401,316.9033,0,U,62248,999,12353,.12705014E-3,.94E-6,0
QIANFAN-48,2024-232N,2026-06-10T14:30:12.409056,13.51012344,.00186638,89.0085,23.1526,45.1910,315.0755,0,U,62249,999,12353,.14099597E-3,.103E-5,0
QIANFAN-49,2024-232P,2026-06-10T14:12:26.710848,13.51011056,.00156299,89.0084,23.1649,41.1056,319.1269,0,U,62250,999,9212,.11352959E-3,.85E-6,0
