0 STARLINK-11466
1 62220U 24231C   26161.29425433  .00113862  00000-0  93077-3 0  9992
2 62220  53.1581   4.9421 0001058  65.0615 295.0513 15.69737621 87955
0 STARLINK-11468
1 62221U 24231D   26160.85838123  .00164121  00000-0  13320-2 0  9994
2 62221  53.1569   7.2014 0000962  96.1129 263.9998 15.69725423 87884
0 STARLINK-11488
1 62222U 24231E   26161.28934808  .00218723  00000-0  17594-2 0  9995
2 62222  53.1577   4.9073 0001101  79.1533 280.9609 15.69758977 87955
0 STARLINK-11483
1 62223U 24231F   26161.06399769  .00180103  00000-0  14545-2 0  9996
2 62223  53.1571   5.6214 0001046 121.8394 238.2726 15.69790916 87925
0 STARLINK-11492
1 62224U 24231G   26160.85347708  .00137946  00000-0  11236-2 0  9990
2 62224  53.1565   7.1800 0000679  59.2575 300.8510 15.69731594 87882
0 STARLINK-11471
1 62225U 24231H   26161.19624829  .00119767  00000-0  97805-3 0  9999
2 62225  53.1575   5.0375 0001071  65.0700 295.0429 15.69738631 87940
0 STARLINK-11475
1 62226U 24231J   26161.26482025  .00165783  00000-0  13439-2 0  9997
2 62226  53.1567   4.7414 0000845  74.4277 285.6834 15.69749323 87959
0 STARLINK-11469
1 62227U 24231K   26161.27463126  .00125142  00000-0  10205-2 0  9993
2 62227  53.1575   4.8060 0001104  77.6772 282.4370 15.69751662 87950
0 STARLINK-11476
1 62228U 24231L   26160.86808894  .00220200  00000-0  17721-2 0  9994
2 62228  53.1571   6.5273 0000736  78.2662 281.8438 15.69743833 87901
0 STARLINK-11485
1 62229U 24231M   26161.26972633  .00133303  00000-0  10852-2 0  9998
2 62229  53.1575   4.7751 0000666  71.7654 288.3437 15.69761368 87957
0 STARLINK-11481
1 62230U 24231N   26160.86328657  .00148784  00000-0  12104-2 0  9997
2 62230  53.1570   7.2281 0000802  53.1118 306.9973 15.69721671 87888
0 STARLINK-32650
1 62231U 24231P   26161.28677917  .00010919  00000-0  36290-3 0  9992
2 62231  53.1591 149.6485 0001352 103.6955 256.4197 15.31719930 85946
0 STARLINK-32636
1 62232U 24231Q   26161.25170186  .00041627  00000-0  14095-2 0  9994
2 62232  53.1579 149.4449 0001902 114.1720 245.9480 15.30203513 85941
0 STARLINK-32643
1 62233U 24231R   26161.62388278  .00016434  00000-0  53962-3 0  9994
2 62233  53.1574 134.7114 0001105 100.0009 260.1117 15.31732558 86171
0 STARLINK-32652
1 62234U 24231S   26161.27489359  .00007346  00000-0  25989-3 0  9998
2 62234  53.1583 149.5735 0001373  83.2535 276.8622 15.30202268 85935
0 STARLINK-32631
1 62235U 24231T   26161.21370808  .00017803  00000-0  58385-3 0  9996
2 62235  53.1584 136.4201 0001039  83.2235 276.8884 15.31712782 86115
0 STARLINK-32641
1 62236U 24231U   26161.21218793  .00015567  00000-0  53636-3 0  9990
2 62236  53.1570 137.1110 0001001 108.7551 251.3558 15.30214258 86100
0 QIANFAN-37
1 62238U 24232B   26161.59608101  .00000084  00000-0  11092-3 0  9998
2 62238  89.0078  23.2469 0001540  69.4444 290.6872 13.51007825123453
0 QIANFAN-38
1 62239U 24232C   26161.62074833  .00000036  00000-0  36650-4 0  9997
2 62239  89.0084  23.1725 0015995  41.0638 319.1714 13.51004993123517
0 QIANFAN-39
1 62240U 24232D   26161.62182815  .00000260  00000-0  10387-3 0  9996
2 62240  89.0065  16.8147 0014917 201.9646 158.0910 14.25522842127011
0 QIANFAN-40
1 62241U 24232E   26161.57960024  .00000086  00000-0  11451-3 0  9996
2 62241  89.0112  22.8114 0015213  48.6645 311.5813 13.51012683123874
0 QIANFAN-41
1 62242U 24232F   26161.58788119  .00000087  00000-0  11659-3 0  9992
2 62242  89.0083  23.1241 0015304  37.7941 322.4282 13.51008966123539
0 QIANFAN-42
1 62243U 24232G   26161.59391961  .00000241  00000-0  97689-4 0  9999
2 62243  89.0063  16.8918 0013547 208.7124 151.3324 14.24612052126973
0 QIANFAN-43
1 62244U 24232H   26161.58375852  .00000081  00000-0  10643-3 0  9996
2 62244  89.0087  23.1977 0016970  42.0255 318.2194 13.51008738 92142
0 QIANFAN-44
1 62245U 24232J   26161.64546701  .00000092  00000-0  12368-3 0  9995
2 62245  89.0085  22.9994 0015106  39.8358 320.3900 13.51010766123626
0 QIANFAN-45
1 62246U 24232K   26161.61258134  .00000090  00000-0  11992-3 0  9993
2 62246  89.0089  23.1556 0015764  39.3116 320.9176 13.51008330123541
0 QIANFAN-46
1 62247U 24232L   26161.56319355  .00000080  00000-0  10480-3 0  9991
2 62247  89.0085  23.2222 0015950  44.4529 315.7899 13.51009070123491
0 QIANFAN-47
1 62248U 24232M   26161.64136339  .00000094  00000-0  12705-3 0  9997
2 62248  89.0081  23.1401 0016351  43.3401 316.9033 13.51007781123534
0 QIANFAN-48
1 62249U 24232N   26161.60431029  .00000103  00000-0  14100-3 0  9990
2 62249  89.0085  23.1526 0018664  45.1910 315.0755 13.51012344123533
0 QIANFAN-49
1 62250U 24232P   26161.59197582  .00000085  00000-0  11353-3 0  9999
2 62250  89.0084  23.1649 0015630  41.1056 319.1269 13.51011056 92121
